STARLINK-1973           
1 47628U 21012J   26068.27562058  .00012450  00000+0  43146-3 0  9992
2 47628  53.1604  66.9145 0001447  99.2060 260.9105 15.30222617280025
KUIPER-00266            
1 67789U 26030AB  26067.91293632  .00029701  00000+0  98220-3 0  9996
2 67789  51.8807 223.5904 0022313  72.5291 287.8129 15.30874235  4964
